IRIDIUM 36              
1 24967U 97056C   24217.17452159  .00000825  00000+0  27231-3 0  9997
2 24967  86.3982 306.1492 0002091  91.0548 269.0888 14.36925269406682
IRIDIUM 38              
1 25043U 97069E   24217.16708576  .00001003  00000+0  32956-3 0  9992
2 25043  86.3984   6.4976 0003793  77.3710 282.7912 14.37373488400668
IRIDIUM 42              
1 25077U 97077A   24216.92841342  .00000890  00000+0  30185-3 0  9995
2 25077  86.3981  12.3736 0002741  88.7648 271.3862 14.35662214395667
IRIDIUM 45              
1 25104U 97082A   24216.98769999  .00026501  00000+0  14128-2 0  9990
2 25104  86.3755 199.7913 0157484  66.0610 295.7027 15.04892023404290
IRIDIUM 24              
1 25105U 97082B   24216.92969752  .00001041  00000+0  31566-3 0  9992
2 25105  86.3910 214.6621 0013306  53.2001 307.0417 14.41300151397504
